<?xml version="1.0" encoding="UTF-8"?>
<ndm xmlns:xsi="http://www.w3.org/2001/XMLSchema-instance" xsi:noNamespaceSchemaLocation="https://sanaregistry.org/r/ndmxml_unqualified/ndmxml-2.0.0-master-2.0.xsd">
<omm id="CCSDS_OMM_VERS" version="2.0">
<header><CREATION_DATE/><ORIGINATOR/></header><body><segment><metadata><OBJECT_NAME>IRIDIUM 116</OBJECT_NAME><OBJECT_ID>2017-083C</OBJECT_ID><CENTER_NAME>EARTH</CENTER_NAME><REF_FRAME>TEME</REF_FRAME><TIME_SYSTEM>UTC</TIME_SYSTEM><MEAN_ELEMENT_THEORY>SGP4</MEAN_ELEMENT_THEORY></metadata><data><meanElements><EPOCH>2025-01-30T19:29:06.911520</EPOCH><MEAN_MOTION>14.34220428</MEAN_MOTION><ECCENTRICITY>.0002094</ECCENTRICITY><INCLINATION>86.4026</INCLINATION><RA_OF_ASC_NODE>171.9820</RA_OF_ASC_NODE><ARG_OF_PERICENTER>91.3588</ARG_OF_PERICENTER><MEAN_ANOMALY>268.7848</MEAN_ANOMALY></meanElements><tleParameters><EPHEMERIS_TYPE>0</EPHEMERIS_TYPE><CLASSIFICATION_TYPE>U</CLASSIFICATION_TYPE><NORAD_CAT_ID>43072</NORAD_CAT_ID><ELEMENT_SET_NO>999</ELEMENT_SET_NO><REV_AT_EPOCH>37216</REV_AT_EPOCH><BSTAR>-.1072E-4</BSTAR><MEAN_MOTION_DOT>-.1E-6</MEAN_MOTION_DOT><MEAN_MOTION_DDOT>0</MEAN_MOTION_DDOT></tleParameters></data></segment></body></omm>
<omm id="CCSDS_OMM_VERS" version="2.0">
<header><CREATION_DATE/><ORIGINATOR/></header><body><segment><metadata><OBJECT_NAME>IRIDIUM 130</OBJECT_NAME><OBJECT_ID>2017-083D</OBJECT_ID><CENTER_NAME>EARTH</CENTER_NAME><REF_FRAME>TEME</REF_FRAME><TIME_SYSTEM>UTC</TIME_SYSTEM><MEAN_ELEMENT_THEORY>SGP4</MEAN_ELEMENT_THEORY></metadata><data><meanElements><EPOCH>2025-01-30T18:43:26.931648</EPOCH><MEAN_MOTION>14.34221618</MEAN_MOTION><ECCENTRICITY>.0002163</ECCENTRICITY><INCLINATION>86.4028</INCLINATION><RA_OF_ASC_NODE>172.2210</RA_OF_ASC_NODE><ARG_OF_PERICENTER>95.8252</ARG_OF_PERICENTER><MEAN_ANOMALY>264.3190</MEAN_ANOMALY></meanElements><tleParameters><EPHEMERIS_TYPE>0</EPHEMERIS_TYPE><CLASSIFICATION_TYPE>U</CLASSIFICATION_TYPE><NORAD_CAT_ID>43073</NORAD_CAT_ID><ELEMENT_SET_NO>999</ELEMENT_SET_NO><REV_AT_EPOCH>37210</REV_AT_EPOCH><BSTAR>.2395E-3</BSTAR><MEAN_MOTION_DOT>.691E-5</MEAN_MOTION_DOT><MEAN_MOTION_DDOT>0</MEAN_MOTION_DDOT></tleParameters></data></segment></body></omm>
<omm id="CCSDS_OMM_VERS" version="2.0">
<header><CREATION_DATE/><ORIGINATOR/></header><body><segment><metadata><OBJECT_NAME>IRIDIUM 151</OBJECT_NAME><OBJECT_ID>2017-083E</OBJECT_ID><CENTER_NAME>EARTH</CENTER_NAME><REF_FRAME>TEME</REF_FRAME><TIME_SYSTEM>UTC</TIME_SYSTEM><MEAN_ELEMENT_THEORY>SGP4</MEAN_ELEMENT_THEORY></metadata><data><meanElements><EPOCH>2025-01-30T19:47:22.974144</EPOCH><MEAN_MOTION>14.34219743</MEAN_MOTION><ECCENTRICITY>.0002037</ECCENTRICITY><INCLINATION>86.4020</INCLINATION><RA_OF_ASC_NODE>172.0229</RA_OF_ASC_NODE><ARG_OF_PERICENTER>89.7178</ARG_OF_PERICENTER><MEAN_ANOMALY>270.4252</MEAN_ANOMALY></meanElements><tleParameters><EPHEMERIS_TYPE>0</EPHEMERIS_TYPE><CLASSIFICATION_TYPE>U</CLASSIFICATION_TYPE><NORAD_CAT_ID>43074</NORAD_CAT_ID><ELEMENT_SET_NO>999</ELEMENT_SET_NO><REV_AT_EPOCH>37213</REV_AT_EPOCH><BSTAR>.25216E-3</BSTAR><MEAN_MOTION_DOT>.726E-5</MEAN_MOTION_DOT><MEAN_MOTION_DDOT>0</MEAN_MOTION_DDOT></tleParameters></data></segment></body></omm>
<omm id="CCSDS_OMM_VERS" version="2.0">
<header><CREATION_DATE/><ORIGINATOR/></header><body><segment><metadata><OBJECT_NAME>IRIDIUM 134</OBJECT_NAME><OBJECT_ID>2017-083F</OBJECT_ID><CENTER_NAME>EARTH</CENTER_NAME><REF_FRAME>TEME</REF_FRAME><TIME_SYSTEM>UTC</TIME_SYSTEM><MEAN_ELEMENT_THEORY>SGP4</MEAN_ELEMENT_THEORY></metadata><data><meanElements><EPOCH>2025-01-30T17:21:16.130304</EPOCH><MEAN_MOTION>14.34220859</MEAN_MOTION><ECCENTRICITY>.0002263</ECCENTRICITY><INCLINATION>86.4021</INCLINATION><RA_OF_ASC_NODE>172.0662</RA_OF_ASC_NODE><ARG_OF_PERICENTER>96.2577</ARG_OF_PERICENTER><MEAN_ANOMALY>263.8877</MEAN_ANOMALY></meanElements><tleParameters><EPHEMERIS_TYPE>0</EPHEMERIS_TYPE><CLASSIFICATION_TYPE>U</CLASSIFICATION_TYPE><NORAD_CAT_ID>43075</NORAD_CAT_ID><ELEMENT_SET_NO>999</ELEMENT_SET_NO><REV_AT_EPOCH>37208</REV_AT_EPOCH><BSTAR>.22497E-3</BSTAR><MEAN_MOTION_DOT>.65E-5</MEAN_MOTION_DOT><MEAN_MOTION_DDOT>0</MEAN_MOTION_DDOT></tleParameters></data></segment></body></omm>
<omm id="CCSDS_OMM_VERS" version="2.0">
<header><CREATION_DATE/><ORIGINATOR/></header><body><segment><metadata><OBJECT_NAME>IRIDIUM 137</OBJECT_NAME><OBJECT_ID>2017-083G</OBJECT_ID><CENTER_NAME>EARTH</CENTER_NAME><REF_FRAME>TEME</REF_FRAME><TIME_SYSTEM>UTC</TIME_SYSTEM><MEAN_ELEMENT_THEORY>SGP4</MEAN_ELEMENT_THEORY></metadata><data><meanElements><EPOCH>2025-01-30T10:57:39.042432</EPOCH><MEAN_MOTION>14.34219879</MEAN_MOTION><ECCENTRICITY>.0002329</ECCENTRICITY><INCLINATION>86.4024</INCLINATION><RA_OF_ASC_NODE>172.2599</RA_OF_ASC_NODE><ARG_OF_PERICENTER>83.1710</ARG_OF_PERICENTER><MEAN_ANOMALY>276.9750</MEAN_ANOMALY></meanElements><tleParameters><EPHEMERIS_TYPE>0</EPHEMERIS_TYPE><CLASSIFICATION_TYPE>U</CLASSIFICATION_TYPE><NORAD_CAT_ID>43076</NORAD_CAT_ID><ELEMENT_SET_NO>999</ELEMENT_SET_NO><REV_AT_EPOCH>37211</REV_AT_EPOCH><BSTAR>.14452E-3</BSTAR><MEAN_MOTION_DOT>.425E-5</MEAN_MOTION_DOT><MEAN_MOTION_DDOT>0</MEAN_MOTION_DDOT></tleParameters></data></segment></body></omm>
<omm id="CCSDS_OMM_VERS" version="2.0">
<header><CREATION_DATE/><ORIGINATOR/></header><body><segment><metadata><OBJECT_NAME>IRIDIUM 141</OBJECT_NAME><OBJECT_ID>2017-083H</OBJECT_ID><CENTER_NAME>EARTH</CENTER_NAME><REF_FRAME>TEME</REF_FRAME><TIME_SYSTEM>UTC</TIME_SYSTEM><MEAN_ELEMENT_THEORY>SGP4</MEAN_ELEMENT_THEORY></metadata><data><meanElements><EPOCH>2025-01-30T19:10:50.930976</EPOCH><MEAN_MOTION>14.34219381</MEAN_MOTION><ECCENTRICITY>.0001745</ECCENTRICITY><INCLINATION>86.4018</INCLINATION><RA_OF_ASC_NODE>171.9765</RA_OF_ASC_NODE><ARG_OF_PERICENTER>103.2664</ARG_OF_PERICENTER><MEAN_ANOMALY>256.8726</MEAN_ANOMALY></meanElements><tleParameters><EPHEMERIS_TYPE>0</EPHEMERIS_TYPE><CLASSIFICATION_TYPE>U</CLASSIFICATION_TYPE><NORAD_CAT_ID>43077</NORAD_CAT_ID><ELEMENT_SET_NO>999</ELEMENT_SET_NO><REV_AT_EPOCH>37216</REV_AT_EPOCH><BSTAR>.6977E-4</BSTAR><MEAN_MOTION_DOT>.215E-5</MEAN_MOTION_DOT><MEAN_MOTION_DDOT>0</MEAN_MOTION_DDOT></tleParameters></data></segment></body></omm>
<omm id="CCSDS_OMM_VERS" version="2.0">
<header><CREATION_DATE/><ORIGINATOR/></header><body><segment><metadata><OBJECT_NAME>IRIDIUM 153</OBJECT_NAME><OBJECT_ID>2017-083J</OBJECT_ID><CENTER_NAME>EARTH</CENTER_NAME><REF_FRAME>TEME</REF_FRAME><TIME_SYSTEM>UTC</TIME_SYSTEM><MEAN_ELEMENT_THEORY>SGP4</MEAN_ELEMENT_THEORY></metadata><data><meanElements><EPOCH>2025-01-30T14:41:02.918112</EPOCH><MEAN_MOTION>14.34218260</MEAN_MOTION><ECCENTRICITY>.0001559</ECCENTRICITY><INCLINATION>86.4014</INCLINATION><RA_OF_ASC_NODE>140.5820</RA_OF_ASC_NODE><ARG_OF_PERICENTER>111.1931</ARG_OF_PERICENTER><MEAN_ANOMALY>248.9431</MEAN_ANOMALY></meanElements><tleParameters><EPHEMERIS_TYPE>0</EPHEMERIS_TYPE><CLASSIFICATION_TYPE>U</CLASSIFICATION_TYPE><NORAD_CAT_ID>43078</NORAD_CAT_ID><ELEMENT_SET_NO>999</ELEMENT_SET_NO><REV_AT_EPOCH>37324</REV_AT_EPOCH><BSTAR>.30394E-3</BSTAR><MEAN_MOTION_DOT>.871E-5</MEAN_MOTION_DOT><MEAN_MOTION_DDOT>0</MEAN_MOTION_DDOT></tleParameters></data></segment></body></omm>
<omm id="CCSDS_OMM_VERS" version="2.0">
<header><CREATION_DATE/><ORIGINATOR/></header><body><segment><metadata><OBJECT_NAME>IRIDIUM 131</OBJECT_NAME><OBJECT_ID>2017-083K</OBJECT_ID><CENTER_NAME>EARTH</CENTER_NAME><REF_FRAME>TEME</REF_FRAME><TIME_SYSTEM>UTC</TIME_SYSTEM><MEAN_ELEMENT_THEORY>SGP4</MEAN_ELEMENT_THEORY></metadata><data><meanElements><EPOCH>2025-01-30T18:52:35.045472</EPOCH><MEAN_MOTION>14.34218958</MEAN_MOTION><ECCENTRICITY>.0001844</ECCENTRICITY><INCLINATION>86.4025</INCLINATION><RA_OF_ASC_NODE>172.1341</RA_OF_ASC_NODE><ARG_OF_PERICENTER>93.3588</ARG_OF_PERICENTER><MEAN_ANOMALY>266.7819</MEAN_ANOMALY></meanElements><tleParameters><EPHEMERIS_TYPE>0</EPHEMERIS_TYPE><CLASSIFICATION_TYPE>U</CLASSIFICATION_TYPE><NORAD_CAT_ID>43079</NORAD_CAT_ID><ELEMENT_SET_NO>999</ELEMENT_SET_NO><REV_AT_EPOCH>37209</REV_AT_EPOCH><BSTAR>.13818E-3</BSTAR><MEAN_MOTION_DOT>.407E-5</MEAN_MOTION_DOT><MEAN_MOTION_DDOT>0</MEAN_MOTION_DDOT></tleParameters></data></segment></body></omm>

</ndm>
