IRIDIUM 116             
1 43072U 17083C   25030.81188555 -.00000010  00000+0 -10720-4 0  9992
2 43072  86.4026 171.9820 0002094  91.3588 268.7848 14.34220428372163
IRIDIUM 130             
1 43073U 17083D   25030.78017282  .00000691  00000+0  23950-3 0  9998
2 43073  86.4028 172.2210 0002163  95.8252 264.3190 14.34221618372105
IRIDIUM 151             
1 43074U 17083E   25030.82457146  .00000726  00000+0  25216-3 0  9997
2 43074  86.4020 172.0229 0002037  89.7178 270.4252 14.34219743372131
IRIDIUM 134             
1 43075U 17083F   25030.72310336  .00000650  00000+0  22497-3 0  9990
2 43075  86.4021 172.0662 0002263  96.2577 263.8877 14.34220859372084
IRIDIUM 137             
1 43076U 17083G   25030.45670188  .00000425  00000+0  14452-3 0  9997
2 43076  86.4024 172.2599 0002329  83.1710 276.9750 14.34219879372115
IRIDIUM 141             
1 43077U 17083H   25030.79920059  .00000215  00000+0  69770-4 0  9991
2 43077  86.4018 171.9765 0001745 103.2664 256.8726 14.34219381372166
IRIDIUM 153             
1 43078U 17083J   25030.61183933  .00000871  00000+0  30394-3 0  9992
2 43078  86.4014 140.5820 0001559 111.1931 248.9431 14.34218260373245
IRIDIUM 131             
1 43079U 17083K   25030.78651673  .00000407  00000+0  13818-3 0  9999
2 43079  86.4025 172.1341 0001844  93.3588 266.7819 14.34218958372097
